[{"OBJECT_NAME":"STARLINK-35695","OBJECT_ID":"2025-268B","EPOCH":"2026-03-09T03:42:57.450240","MEAN_MOTION":15.27597305,"ECCENTRICITY":0.00041644,"INCLINATION":43.0083,"RA_OF_ASC_NODE":350.4619,"ARG_OF_PERICENTER":256.8745,"MEAN_ANOMALY":103.1642,"EPHEMERIS_TYPE":0,"CLASSIFICATION_TYPE":"U","NORAD_CAT_ID":66558,"ELEMENT_SET_NO":999,"REV_AT_EPOCH":1787,"BSTAR":0.0011711522,"MEAN_MOTION_DOT":0.00032128,"MEAN_MOTION_DDOT":0},{"OBJECT_NAME":"CZ-6A DEB","OBJECT_ID":"2022-151NB","EPOCH":"2026-03-09T18:26:17.609568","MEAN_MOTION":15.22372787,"ECCENTRICITY":0.00267955,"INCLINATION":98.6489,"RA_OF_ASC_NODE":154.0342,"ARG_OF_PERICENTER":180.4296,"MEAN_ANOMALY":179.6918,"EPHEMERIS_TYPE":0,"CLASSIFICATION_TYPE":"U","NORAD_CAT_ID":54601,"ELEMENT_SET_NO":999,"REV_AT_EPOCH":17694,"BSTAR":0.011449911,"MEAN_MOTION_DOT":0.00276508,"MEAN_MOTION_DDOT":0}]
